PANDORA
1 67395U 80229J   26103.87174769  .00000000  00000-0  37770-3 0    02
2 67395  97.8045 103.5327 0004659   2.5554 291.6872 14.87986952    05
